GLOBALSTAR M045         
1 25676U 99019A   24162.64287309 -.00000037  00000+0  49923-3 0  9998
2 25676  51.9979 284.2295 0000853 159.8277 213.2739 12.27039995147786
GLOBALSTAR M019         
1 25677U 99019B   24162.56158457 -.00000147  00000+0 -59429-3 0  9996
2 25677  51.9901  28.6797 0000567 349.5494  41.4051 12.13857663140012
GLOBALSTAR M044         
1 25678U 99019C   24162.64808961 -.00000062  00000+0  29657-3 0  9993
2 25678  51.9980 293.3199 0006466  49.1881 323.6040 11.90233376127082
GLOBALSTAR M025         
1 25770U 99031A   24162.54574751 -.00000070  00000+0 -88428-4 0  9998
2 25770  51.9833 300.2020 0001326 217.1926 222.0050 11.22550608439972
GLOBALSTAR M049         
1 25771U 99031B   24162.59680470 -.00000043  00000+0  78043-3 0  9990
2 25771  51.9898 316.1720 0003458 114.6720 245.4436 11.12109725 76083
GLOBALSTAR M047         
1 25772U 99031C   24162.54976293 -.00000060  00000+0  25682-3 0  9997
2 25772  51.9859 348.7537 0016075 347.4424  12.5980 11.31921213429022
GLOBALSTAR M052         
1 25773U 99031D   24162.49901113 -.00000001  00000+0  21911-2 0  9996
2 25773  51.9884  70.2943 0002383 289.7453 241.2306 11.15051438437045
